[{"OBJECT_NAME":"STARLINK-4312","OBJECT_ID":"2022-077Y","EPOCH":"2026-03-09T22:37:33.331296","MEAN_MOTION":15.01259749,"ECCENTRICITY":0.00020696,"INCLINATION":97.6015,"RA_OF_ASC_NODE":250.4555,"ARG_OF_PERICENTER":194.3253,"MEAN_ANOMALY":165.7913,"EPHEMERIS_TYPE":0,"CLASSIFICATION_TYPE":"U","NORAD_CAT_ID":53065,"ELEMENT_SET_NO":999,"REV_AT_EPOCH":20095,"BSTAR":4.464884e-6,"MEAN_MOTION_DOT":-1.0e-8,"MEAN_MOTION_DDOT":0},{"OBJECT_NAME":"CZ-2D DEB","OBJECT_ID":"2018-048E","EPOCH":"2026-03-09T22:09:24.485184","MEAN_MOTION":14.95292309,"ECCENTRICITY":0.00245463,"INCLINATION":98.262,"RA_OF_ASC_NODE":231.1035,"ARG_OF_PERICENTER":114.5757,"MEAN_ANOMALY":245.8024,"EPHEMERIS_TYPE":0,"CLASSIFICATION_TYPE":"U","NORAD_CAT_ID":43490,"ELEMENT_SET_NO":999,"REV_AT_EPOCH":41934,"BSTAR":0.00070357513,"MEAN_MOTION_DOT":7.737e-5,"MEAN_MOTION_DDOT":0}]
